IRIDIUM 26              
1 24903U 97043A   25197.63792066  .00000265  00000+0  82337-4 0  9993
2 24903  86.3949  98.2520 0002184  79.6707 280.4737 14.37162922460970
IRIDIUM 22              
1 24907U 97043E   25197.24368544  .00000214  00000+0  66791-4 0  9994
2 24907  86.3958 101.9828 0002110  84.6993 275.4444 14.35972812460940
IRIDIUM 29              
1 24944U 97051A   25197.53491488  .00000301  00000+0  96044-4 0  9991
2 24944  86.3984 131.5934 0002234  90.4913 269.6540 14.36486197457485
IRIDIUM 33              
1 24946U 97051C   25197.54894971  .00000245  00000+0  79482-4 0  9992
2 24946  86.3900 130.8504 0007664 359.4549   0.6637 14.34906988456959
IRIDIUM 36              
1 24967U 97056C   25197.37915681  .00000290  00000+0  90133-4 0  9999
2 24967  86.4006 160.7435 0002038  84.1103 276.0327 14.37627215456415
